0 OPS 4682 DEB
1 38387U 65027CQ  13283.21156942  .00000036  00000-0  10000-3 0   642
2 38387 090.2766 246.0998 0034015 023.4791 336.7848 12.95172304464252
0 OPS 4682 DEB
1 38387U 65027CQ  13288.15576109  .00000035  00000-0  10000-3 0   651
2 38387 090.2898 246.2540 0032251 018.1695 342.0903 12.95173045464892
0 OPS 4682 DEB
1 38387U 65027CQ  13291.63213689  .00000035  00000-0  10000-3 0   660
2 38387 090.2775 246.3167 0033403 006.5031 353.6498 12.95173397465345
0 OPS 4682 DEB
1 38387U 65027CQ  13294.18148357  .00000035  00000-0  10000-3 0   673
2 38387 090.2783 246.3729 0034549 356.1009 004.0157 12.95174602465674
